start=new Date('2022-08-07T00:00:00.000Z').valueOf();
sats=[{"NORAD_CAT_ID":"45556","REF_FRAME":"TEME","MEAN_ELEMENT_THEORY":"SGP4","MEAN_MOTION_DDOT":"0.0000000000000","RCS_SIZE":"LARGE","MEAN_MOTION_DOT":"0.00000875","CENTER_NAME":"EARTH","BSTAR":"0.00007765600000","ELEMENT_SET_NO":"999","LAUNCH_DATE":"2020-04-22","PERIOD":"95.592","ECCENTRICITY":"0.00016290","PERIAPSIS":"546.083","FILE":"3530813","REV_AT_EPOCH":"12777","OBJECT_ID":"2020-025AB","EPOCH":"2022-08-06T16:41:40.164864","ARG_OF_PERICENTER":"65.0994","SITE":"AFETR","EPHEMERIS_TYPE":"0","MEAN_MOTION":"15.06400669","COUNTRY_CODE":"US","TLE_LINE2":"2 45556  53.0524 211.9098 0001629  65.0994 295.0164 15.06400669127775","OBJECT_NAME":"STARLINK-1334","OBJECT_TYPE":"PAYLOAD","RA_OF_ASC_NODE":"211.9098","TIME_SYSTEM":"UTC","MEAN_ANOMALY":"295.0164","SEMIMAJOR_AXIS":"6925.347","CLASSIFICATION_TYPE":"U","DECAY_DATE":null,"TLE_LINE1":"1 45556U 20025AB  22218.69560376  .00000875  00000-0  77656-4 0  9996","GP_ID":"209722563","INCLINATION":"53.0524","APOAPSIS":"548.340"},{"MEAN_MOTION_DDOT":"0.0000000000000","RCS_SIZE":"LARGE","CENTER_NAME":"EARTH","BSTAR":"-0.00002018300000","MEAN_MOTION_DOT":"-0.00000582","MEAN_ELEMENT_THEORY":"SGP4","REF_FRAME":"TEME","NORAD_CAT_ID":"45557","OBJECT_ID":"2020-025AC","REV_AT_EPOCH":"12777","PERIAPSIS":"546.326","ECCENTRICITY":"0.00012880","ELEMENT_SET_NO":"999","LAUNCH_DATE":"2020-04-22","PERIOD":"95.592","FILE":"3530813","ARG_OF_PERICENTER":"78.2321","EPOCH":"2022-08-06T16:52:16.166496","SITE":"AFETR","EPHEMERIS_TYPE":"0","TLE_LINE2":"2 45557  53.0550 211.8782 0001288  78.2321 281.8812 15.06398714127775","MEAN_MOTION":"15.06398714","COUNTRY_CODE":"US","OBJECT_NAME":"STARLINK-1336","OBJECT_TYPE":"PAYLOAD","TIME_SYSTEM":"UTC","RA_OF_ASC_NODE":"211.8782","CLASSIFICATION_TYPE":"U","SEMIMAJOR_AXIS":"6925.352","MEAN_ANOMALY":"281.8812","GP_ID":"209723813","APOAPSIS":"548.109","INCLINATION":"53.0550","DECAY_DATE":null,"TLE_LINE1":"1 45557U 20025AC  22218.70296489 -.00000582  00000-0 -20183-4 0  9990"},{"TLE_LINE1":"1 45558U 20025AD  22218.27171083 -.00001236  00000-0 -64107-4 0  9996","DECAY_DATE":null,"GP_ID":"209691961","APOAPSIS":"548.309","INCLINATION":"53.0543","MEAN_ANOMALY":"294.3730","CLASSIFICATION_TYPE":"U","SEMIMAJOR_AXIS":"6925.372","OBJECT_NAME":"STARLINK-1342","TIME_SYSTEM":"UTC","OBJECT_TYPE":"PAYLOAD","RA_OF_ASC_NODE":"213.8158","MEAN_MOTION":"15.06392440","COUNTRY_CODE":"US","TLE_LINE2":"2 45558  53.0543 213.8158 0001548  65.7420 294.3730 15.06392440127708","SITE":"AFETR","EPHEMERIS_TYPE":"0","ARG_OF_PERICENTER":"65.7420","EPOCH":"2022-08-06T06:31:15.815712","PERIAPSIS":"546.165","ECCENTRICITY":"0.00015480","ELEMENT_SET_NO":"999","LAUNCH_DATE":"2020-04-22","PERIOD":"95.593","FILE":"3530579","OBJECT_ID":"2020-025AD","REV_AT_EPOCH":"12770","REF_FRAME":"TEME","MEAN_ELEMENT_THEORY":"SGP4","NORAD_CAT_ID":"45558","RCS_SIZE":"LARGE","MEAN_MOTION_DDOT":"0.0000000000000","BSTAR":"-0.00006410700000","CENTER_NAME":"EARTH","MEAN_MOTION_DOT":"-0.00001236"},{"TLE_LINE1":"1 45559U 20025AE  22218.70201706  .00001877  00000-0  14484-3 0  9992","DECAY_DATE":null,"GP_ID":"209722813","APOAPSIS":"548.332","INCLINATION":"53.0534","MEAN_ANOMALY":"299.6716","CLASSIFICATION_TYPE":"U","SEMIMAJOR_AXIS":"6925.313","OBJECT_NAME":"STARLINK-1344","TIME_SYSTEM":"UTC","OBJECT_TYPE":"PAYLOAD","RA_OF_ASC_NODE":"211.8106","MEAN_MOTION":"15.06411503","COUNTRY_CODE":"US","TLE_LINE2":"2 45559  53.0534 211.8106 0001666  60.4439 299.6716 15.06411503127774","SITE":"AFETR","EPHEMERIS_TYPE":"0","ARG_OF_PERICENTER":"60.4439","EPOCH":"2022-08-06T16:50:54.273984","ECCENTRICITY":"0.00016660","PERIAPSIS":"546.025","LAUNCH_DATE":"2020-04-22","ELEMENT_SET_NO":"999","PERIOD":"95.591","FILE":"3530813","OBJECT_ID":"2020-025AE","REV_AT_EPOCH":"12777","REF_FRAME":"TEME","MEAN_ELEMENT_THEORY":"SGP4","NORAD_CAT_ID":"45559","MEAN_MOTION_DDOT":"0.0000000000000","RCS_SIZE":"LARGE","CENTER_NAME":"EARTH","BSTAR":"0.00014484000000","MEAN_MOTION_DOT":"0.00001877"},{"SITE":"AFETR","EPHEMERIS_TYPE":"0","ARG_OF_PERICENTER":"77.9792","EPOCH":"2022-08-06T16:36:18.412128","ECCENTRICITY":"0.00014140","PERIAPSIS":"546.226","ELEMENT_SET_NO":"999","LAUNCH_DATE":"2020-04-22","PERIOD":"95.592","FILE":"3530813","OBJECT_ID":"2020-025AF","REV_AT_EPOCH":"12791","REF_FRAME":"TEME","MEAN_ELEMENT_THEORY":"SGP4","NORAD_CAT_ID":"45560","RCS_SIZE":"LARGE","MEAN_MOTION_DDOT":"0.0000000000000","BSTAR":"0.00009792300000","CENTER_NAME":"EARTH","MEAN_MOTION_DOT":"0.00001177","DECAY_DATE":null,"TLE_LINE1":"1 45560U 20025AF  22218.69187977  .00001177  00000-0  97923-4 0  9998","GP_ID":"209723062","APOAPSIS":"548.184","INCLINATION":"53.0542","MEAN_ANOMALY":"282.1355","CLASSIFICATION_TYPE":"U","SEMIMAJOR_AXIS":"6925.340","OBJECT_NAME":"STARLINK-1346","TIME_SYSTEM":"UTC","OBJECT_TYPE":"PAYLOAD","RA_OF_ASC_NODE":"201.9130","MEAN_MOTION":"15.06402802","COUNTRY_CODE":"US","TLE_LINE2":"2 45560  53.0542 201.9130 0001414  77.9792 282.1355 15.06402802127912"},{"EPHEMERIS_TYPE":"0","SITE":"AFETR","EPOCH":"2022-08-05T23:54:31.437216","ARG_OF_PERICENTER":"71.4279","FILE":"3530579","ELEMENT_SET_NO":"999","LAUNCH_DATE":"2020-04-22","PERIOD":"95.048","PERIAPSIS":"519.491","ECCENTRICITY":"0.00020450","REV_AT_EPOCH":"12898","OBJECT_ID":"2020-025AG","NORAD_CAT_ID":"45561","MEAN_ELEMENT_THEORY":"SGP4","REF_FRAME":"TEME","MEAN_MOTION_DOT":"0.00011334","CENTER_NAME":"EARTH","BSTAR":"0.00061469000000","RCS_SIZE":"LARGE","MEAN_MOTION_DDOT":"0.0000000000000","TLE_LINE1":"1 45561U 20025AG  22217.99619719  .00011334  00000-0  61469-3 0  9996","DECAY_DATE":null,"INCLINATION":"53.0546","APOAPSIS":"522.313","GP_ID":"209691712","MEAN_ANOMALY":"288.6936","SEMIMAJOR_AXIS":"6899.037","CLASSIFICATION_TYPE":"U","RA_OF_ASC_NODE":"121.5279","OBJECT_TYPE":"PAYLOAD","TIME_SYSTEM":"UTC","OBJECT_NAME":"STARLINK-1348","COUNTRY_CODE":"US","MEAN_MOTION":"15.15025944","TLE_LINE2":"2 45561  53.0546 121.5279 0002045  71.4279 288.6936 15.15025944128980"},{"FILE":"3530813","PERIAPSIS":"546.193","ECCENTRICITY":"0.00014740","LAUNCH_DATE":"2020-04-22","PERIOD":"95.592","ELEMENT_SET_NO":"999","OBJECT_ID":"2020-025AH","REV_AT_EPOCH":"12777","REF_FRAME":"TEME","MEAN_ELEMENT_THEORY":"SGP4","NORAD_CAT_ID":"45562","CENTER_NAME":"EARTH","BSTAR":"0.00010083000000","MEAN_MOTION_DOT":"0.00001221","RCS_SIZE":"LARGE","MEAN_MOTION_DDOT":"0.0000000000000","EPHEMERIS_TYPE":"0","SITE":"AFETR","ARG_OF_PERICENTER":"76.3409","EPOCH":"2022-08-06T17:08:11.441184","TIME_SYSTEM":"UTC","OBJECT_TYPE":"PAYLOAD","RA_OF_ASC_NODE":"211.8058","OBJECT_NAME":"STARLINK-1354","COUNTRY_CODE":"US","MEAN_MOTION":"15.06400058","TLE_LINE2":"2 45562  53.0534 211.8058 0001474  76.3409 283.7743 15.06400058127771","DECAY_DATE":null,"TLE_LINE1":"1 45562U 20025AH  22218.71402131  .00001221  00000-0  10083-3 0  9996","APOAPSIS":"548.234","INCLINATION":"53.0534","GP_ID":"209723564","MEAN_ANOMALY":"283.7743","CLASSIFICATION_TYPE":"U","SEMIMAJOR_AXIS":"6925.348"},{"ECCENTRICITY":"0.00013370","PERIAPSIS":"546.270","LAUNCH_DATE":"2020-04-22","PERIOD":"95.592","ELEMENT_SET_NO":"999","FILE":"3530579","OBJECT_ID":"2020-025AJ","REV_AT_EPOCH":"12772","REF_FRAME":"TEME","MEAN_ELEMENT_THEORY":"SGP4","NORAD_CAT_ID":"45563","MEAN_MOTION_DDOT":"0.0000000000000","RCS_SIZE":"LARGE","CENTER_NAME":"EARTH","BSTAR":"0.00009402300000","MEAN_MOTION_DOT":"0.00001119","SITE":"AFETR","EPHEMERIS_TYPE":"0","ARG_OF_PERICENTER":"79.7613","EPOCH":"2022-08-06T09:31:42.956544","OBJECT_NAME":"STARLINK-1355","TIME_SYSTEM":"UTC","OBJECT_TYPE":"PAYLOAD","RA_OF_ASC_NODE":"213.2370","MEAN_MOTION":"15.06405593","COUNTRY_CODE":"US","TLE_LINE2":"2 45563  53.0522 213.2370 0001337  79.7613 280.3527 15.06405593127721","DECAY_DATE":null,"TLE_LINE1":"1 45563U 20025AJ  22218.39702496  .00001119  00000-0  94023-4 0  9991","GP_ID":"209692714","APOAPSIS":"548.122","INCLINATION":"53.0522","MEAN_ANOMALY":"280.3527","CLASSIFICATION_TYPE":"U","SEMIMAJOR_AXIS":"6925.331"},{"SITE":"AFETR","EPHEMERIS_TYPE":"0","EPOCH":"2022-08-06T06:15:20.102112","ARG_OF_PERICENTER":"74.3160","REV_AT_EPOCH":"12770","OBJECT_ID":"2020-025AK","PERIOD":"95.592","LAUNCH_DATE":"2020-04-22","ELEMENT_SET_NO":"999","PERIAPSIS":"546.324","ECCENTRICITY":"0.00013070","FILE":"3530579","RCS_SIZE":"LARGE","MEAN_MOTION_DDOT":"0.0000000000000","MEAN_MOTION_DOT":"-0.00001316","CENTER_NAME":"EARTH","BSTAR":"-0.00006947700000","NORAD_CAT_ID":"45564","REF_FRAME":"TEME","MEAN_ELEMENT_THEORY":"SGP4","GP_ID":"209693463","INCLINATION":"53.0539","APOAPSIS":"548.135","TLE_LINE1":"1 45564U 20025AK  22218.26064933 -.00001316  00000-0 -69477-4 0  9991","DECAY_DATE":null,"SEMIMAJOR_AXIS":"6925.364","CLASSIFICATION_TYPE":"U","MEAN_ANOMALY":"285.7973","OBJECT_NAME":"STARLINK-1356","TIME_SYSTEM":"UTC","OBJECT_TYPE":"PAYLOAD","RA_OF_ASC_NODE":"213.8520","TLE_LINE2":"2 45564  53.0539 213.8520 0001307  74.3160 285.7973 15.06394835127706","MEAN_MOTION":"15.06394835","COUNTRY_CODE":"US"},{"TLE_LINE2":"2 45565  53.0536 211.7990 0001622  69.3877 290.7285 15.06398657127776","COUNTRY_CODE":"US","MEAN_MOTION":"15.06398657","RA_OF_ASC_NODE":"211.7990","OBJECT_TYPE":"PAYLOAD","TIME_SYSTEM":"UTC","OBJECT_NAME":"STARLINK-1357","SEMIMAJOR_AXIS":"6925.353","CLASSIFICATION_TYPE":"U","MEAN_ANOMALY":"290.7285","INCLINATION":"53.0536","APOAPSIS":"548.341","GP_ID":"209723814","DECAY_DATE":null,"TLE_LINE1":"1 45565U 20025AL  22218.71770396 -.00000599  00000-0 -21288-4 0  9999","MEAN_MOTION_DOT":"-0.00000599","CENTER_NAME":"EARTH","BSTAR":"-0.00002128800000","RCS_SIZE":"LARGE","MEAN_MOTION_DDOT":"0.0000000000000","NORAD_CAT_ID":"45565","REF_FRAME":"TEME","MEAN_ELEMENT_THEORY":"SGP4","REV_AT_EPOCH":"12777","OBJECT_ID":"2020-025AL","FILE":"3530813","ELEMENT_SET_NO":"999","LAUNCH_DATE":"2020-04-22","PERIOD":"95.592","ECCENTRICITY":"0.00016220","PERIAPSIS":"546.094","EPOCH":"2022-08-06T17:13:29.622144","ARG_OF_PERICENTER":"69.3877","EPHEMERIS_TYPE":"0","SITE":"AFETR"}];
